{
    "links": {
        "self": "http://www.neowsapp.com/rest/v1/neo/3753868?api_key=iIulBulltgU6a56xZRHN4H3l9WmuAYTsLGpBGhQ2"
    },
    "id": "3753868",
    "neo_reference_id": "3753868",
    "name": "(2016 LW10)",
    "designation": "2016 LW10",
    "nasa_jpl_url": "http://ssd.jpl.nasa.gov/sbdb.cgi?sstr=3753868",
    "absolute_magnitude_h": 24.0,
    "estimated_diameter": {
        "kilometers": {
            "estimated_diameter_min": 0.0421264611,
            "estimated_diameter_max": 0.0941976306
        },
        "meters": {
            "estimated_diameter_min": 42.1264610556,
            "estimated_diameter_max": 94.1976305719
        },
        "miles": {
            "estimated_diameter_min": 0.0261761612,
            "estimated_diameter_max": 0.0585316759
        },
        "feet": {
            "estimated_diameter_min": 138.2101784897,
            "estimated_diameter_max": 309.0473542854
        }
    },
    "is_potentially_hazardous_asteroid": false,
    "close_approach_data": [
        {
            "close_approach_date": "2016-06-07",
            "close_approach_date_full": "2016-Jun-07 20:58",
            "epoch_date_close_approach": 1465333080000,
            "relative_velocity": {
                "kilometers_per_second": "19.824820142",
                "kilometers_per_hour": "71369.3525111881",
                "miles_per_hour": "44346.1401756324"
            },
            "miss_distance": {
                "astronomical": "0.0823612787",
                "lunar": "32.0385374143",
                "kilometers": "12321071.863996369",
                "miles": "7655959.0447491322"
            },
            "orbiting_body": "Earth"
        },
        {
            "close_approach_date": "2016-11-22",
            "close_approach_date_full": "2016-Nov-22 06:51",
            "epoch_date_close_approach": 1479797460000,
            "relative_velocity": {
                "kilometers_per_second": "18.7313147321",
                "kilometers_per_hour": "67432.7330356417",
                "miles_per_hour": "41900.0779242853"
            },
            "miss_distance": {
                "astronomical": "0.3960563772",
                "lunar": "154.0659307308",
                "kilometers": "59249190.429036564",
                "miles": "36815739.7640660232"
            },
            "orbiting_body": "Earth"
        }
    ],
    "orbital_data": {
        "orbit_id": "3",
        "orbit_determination_date": "2017-04-06 08:25:25",
        "first_observation_date": "2016-06-08",
        "last_observation_date": "2016-06-10",
        "data_arc_in_days": 2,
        "observations_used": 20,
        "orbit_uncertainty": "9",
        "minimum_orbit_intersection": ".0736943",
        "jupiter_tisserand_invariant": "4.575",
        "epoch_osculation": "2457548.5",
        "eccentricity": ".3028291622840262",
        "semi_major_axis": "1.373598910344172",
        "inclination": "36.52953563549099",
        "ascending_node_longitude": "254.1213712005163",
        "orbital_period": "588.0149031171912",
        "perihelion_distance": ".9576331030103949",
        "perihelion_argument": "62.46259421863819",
        "aphelion_distance": "1.789564717677949",
        "perihelion_time": "2457602.828235761430",
        "mean_anomaly": "326.7386578632058",
        "mean_motion": ".6122293807377397",
        "equinox": "J2000",
        "orbit_class": {
            "orbit_class_type": "APO",
            "orbit_class_description": "Near-Earth asteroid orbits which cross the Earth’s orbit similar to that of 1862 Apollo",
            "orbit_class_range": "a (semi-major axis) > 1.0 AU; q (perihelion) < 1.017 AU"
        }
    },
    "is_sentry_object": false
}